STARLINK-36621          
1 67561U 26016A   26043.50002314  .00158071  00000+0  10455-2 0  9998
2 67561  97.2839 102.6629 0001221 106.4297 218.5528 15.75093134  4009
STARLINK-36398          
1 67562U 26016B   26043.45011293  .00182681  00000+0  11978-2 0  9994
2 67562  97.2837 102.5908 0000945  74.3169 285.8200 15.75225988  2826
STARLINK-36403          
1 67563U 26016C   26043.37039287  .00372944  00000+0  18541-2 0  9995
2 67563  97.2827 102.5489 0001108  55.1614 304.9758 15.80953010  2814
STARLINK-36593          
1 67564U 26016D   26043.36917058  .00287426  00000+0  14454-2 0  9995
2 67564  97.2829 102.5497 0001083  47.4731 312.6629 15.80921544  2812
STARLINK-35725          
1 67565U 26016E   26043.49506667 -.00169059  00000+0 -93862-3 0  9994
2 67565  97.2828 102.6844 0004068 346.2078  13.9078 15.79854669  2831
STARLINK-36394          
1 67566U 26016F   26043.50002314 -.00004038  00000+0 -26255-4 0  9995
2 67566  97.2837 102.6842 0001415  77.2883 307.6916 15.75156350  4090
STARLINK-36352          
1 67567U 26016G   26043.36550510  .00405835  00000+0  20099-2 0  9992
2 67567  97.2812 102.5501 0000781 357.7750   2.3515 15.80951450  2811
STARLINK-36435          
1 67568U 26016H   26043.29995741  .00313457  00000+0  15736-2 0  9994
2 67568  97.2787 102.4849 0001370 161.7615 198.3702 15.80892996  2807
STARLINK-36575          
1 67569U 26016J   26043.42534992  .00230527  00000+0  11687-2 0  9994
2 67569  97.2836 102.6265 0001131  93.9090 266.2308 15.80891908  2826
STARLINK-36562          
1 67570U 26016K   26043.36113738  .00347768  00000+0  17366-2 0  9996
2 67570  97.2836 102.5599 0001347  70.2677 289.8736 15.80920439  2812
STARLINK-36578          
1 67571U 26016L   26043.50002314  .00161215  00000+0  10656-2 0  9996
2 67571  97.2841 102.6829 0001364 105.6475 267.3283 15.75099786  3987
STARLINK-36350          
1 67572U 26016M   26043.50002314  .00065360  00000+0  43665-3 0  9998
2 67572  97.2837 102.6978 0001265  86.2198 330.7534 15.75141044  3893
STARLINK-36588          
1 67573U 26016N   26043.50002314  .00097839  00000+0  65098-3 0  9999
2 67573  97.2846 102.6955 0001346  99.1280 305.8419 15.75131556  4044
STARLINK-36594          
1 67574U 26016P   26043.35642566  .00282955  00000+0  14242-2 0  9991
2 67574  97.2846 102.5645 0001443  73.5229 286.6198 15.80913067  2811
STARLINK-36400          
1 67575U 26016Q   26043.50002314  .00264945  00000+0  13500-2 0  9995
2 67575  97.2849 102.7172 0001173  91.0323  11.4320 15.80690325  3947
STARLINK-36591          
1 67576U 26016R   26043.35439328  .00226022  00000+0  11466-2 0  9991
2 67576  97.2848 102.5675 0001182  71.1416 288.9980 15.80889694  2812
STARLINK-36590          
1 67577U 26016S   26043.35344772 -.00086630  00000+0 -45869-3 0  9996
2 67577  97.2779 102.5640 0001107 217.6396 142.4794 15.80688901  2814
STARLINK-36613          
1 67578U 26016T   26043.35229052  .00141677  00000+0  72657-3 0  9996
2 67578  97.2856 102.5696 0001392  89.4684 270.6743 15.80872165  2818
STARLINK-36571          
1 67579U 26016U   26043.25003472 -.00092509  00000+0 -62509-3 0  9998
2 67579  97.2844 102.4564 0001582  76.3996  47.9045 15.75225720  3961
STARLINK-36612          
1 67580U 26016V   26043.22310079  .00274331  00000+0  13817-2 0  9991
2 67580  97.2854 102.4392 0001218  64.0092 296.1302 15.80921523  2794
STARLINK-36632          
1 67581U 26016W   26043.21993547  .00222619  00000+0  11292-2 0  9995
2 67581  97.2856 102.4433 0001364 107.1261 253.0157 15.80901231  2796
STARLINK-36609          
1 67582U 26016X   26043.25003472 -.00050033  00000+0 -33823-3 0  9995
2 67582  97.2849 102.4475 0001234  77.6384  24.7600 15.75074371  3964
STARLINK-36577          
1 67583U 26016Y   26043.22162647  .00254476  00000+0  12853-2 0  9997
2 67583  97.2857 102.4406 0001397 106.9562 253.1859 15.80911634  2794
STARLINK-36419          
1 67584U 26016Z   26043.21763038  .00230655  00000+0  11687-2 0  9995
2 67584  97.2859 102.4466 0001205  92.3007 267.8399 15.80902546  2796
STARLINK-36560          
1 67585U 26016AA  26043.15260877  .00185901  00000+0  94763-3 0  9992
2 67585  97.2859 102.3814 0001756  51.4544 308.6881 15.80887211  2786
CZ-2C DEB               
1 67586U 26009C   26043.16527218  .00063262  00000+0  31027-2 0  9999
2 67586  97.2258 116.4619 0110043 125.4847 235.6713 15.12626747  4221
CZ-2C DEB               
1 67587U 26009D   26043.19940552  .00041698  00000+0  19861-2 0  9994
2 67587  97.6728 118.0713 0106789 130.8142 230.2411 15.14012616  4234
NAVSTAR 85 (USA 581)    
1 67588U 26017A   26042.55632560 -.00000027  00000+0  00000+0 0  9994
2 67588  55.0041  93.7970 0000849  63.5435 296.5294  2.00561439429094
STARLINK-36641          
1 67589U 26018A   26043.50002314 -.01839335  00000+0 -11170-1 0  9996
2 67589  97.2847 108.0124 0001908 109.6354  85.2345 15.80348320  3291
STARLINK-36376          
1 67590U 26018B   26043.50002314  .00047090  00000+0  24560-3 0  9993
2 67590  97.2848 108.0134 0001452 113.4577  86.7096 15.80784680  3347
STARLINK-36391          
1 67591U 26018C   26043.50002314  .00032907  00000+0  17265-3 0  9999
2 67591  97.2847 108.0163 0001517  66.3827 140.1104 15.80718438  3348
STARLINK-36603          
1 67592U 26018D   26043.50002314  .00011823  00000+0  62436-4 0  9995
2 67592  97.2846 108.0179 0001397 103.9464 106.6778 15.80796057  3309
STARLINK-36634          
1 67593U 26018E   26043.50002314  .00076271  00000+0  39617-3 0  9998
2 67593  97.2847 108.0212 0001346  99.6532 117.5144 15.80776410  3297
STARLINK-36638          
1 67594U 26018F   26043.50002314 -.00015622  00000+0 -80981-4 0  9995
2 67594  97.2846 108.0233 0001192  77.7457 145.7239 15.80810819  3292
STARLINK-36628          
1 67595U 26018G   26043.50002314  .00242924  00000+0  12412-2 0  9993
2 67595  97.2850 108.0263 0001026  98.4214 129.7559 15.80686935  3295
STARLINK-36629          
1 67596U 26018H   26043.50002314 -.01831407  00000+0 -12574-1 0  9995
2 67596  97.2848 108.0257 0001746  78.8090 150.9579 15.77637001  3293
STARLINK-36384          
1 67597U 26018J   26043.50002314  .00113085  00000+0  58546-3 0  9999
2 67597  97.2848 108.0301 0001098  69.0986 171.1348 15.80742765  3354
STARLINK-36358          
1 67598U 26018K   26043.50002314  .00070963  00000+0  36930-3 0  9990
2 67598  97.2849 108.0316 0001404  86.8417 157.7084 15.80751041  3342
STARLINK-36582          
1 67599U 26018L   26043.50002314  .00265597  00000+0  13537-2 0  9997
2 67599  97.2851 108.0362 0000899 109.2031 142.1495 15.80683853  3402
STARLINK-36640          
1 67600U 26018M   26043.50002314  .00109497  00000+0  72761-3 0  9991
2 67600  97.2825 108.0319 0001666  85.4336 158.9879 15.75125946  3302
STARLINK-36635          
1 67601U 26018N   26043.50002314  .00064073  00000+0  33350-3 0  9993
2 67601  97.2849 108.0368 0001201  79.3414 177.0580 15.80769425  3300
STARLINK-36631          
1 67602U 26018P   26043.50002314  .00043599  00000+0  22753-3 0  9999
2 67602  97.2845 108.0418 0001726 124.3014 145.6133 15.80785138  3294
STARLINK-36626          
1 67603U 26018Q   26043.50002314  .00057407  00000+0  29899-3 0  9991
2 67603  97.2841 108.0484 0001241  70.3669 217.5287 15.80778646  3297
STARLINK-36605          
1 67604U 26018R   26043.50002314 -.01859097  00000+0 -11993-1 0  9994
2 67604  97.2845 108.0468 0001642  89.8270 192.0395 15.79066022  3295
STARLINK-36281          
1 67605U 26018S   26043.50002314  .00035749  00000+0  18682-3 0  9996
2 67605  97.2844 108.0432 0001362  90.2035 186.7963 15.80791433  3340
STARLINK-35843          
1 67606U 26018T   26043.50002314  .00077940  00000+0  40469-3 0  9994
2 67606  97.2847 108.0505 0001319 103.7645 189.8029 15.80779330  3354
STARLINK-36351          
1 67607U 26018U   26043.50002314 -.00067286  00000+0 -35318-3 0  9996
2 67607  97.2842 108.0530 0001217  80.8692 217.7326 15.80819988  3357
STARLINK-36411          
1 67608U 26018V   26043.50002314  .00086305  00000+0  44787-3 0  9998
2 67608  97.2834 108.0561 0001240  94.6045 211.7517 15.80766834  3340
STARLINK-36312          
1 67609U 26018W   26043.50002314  .00053914  00000+0  28127-3 0  9999
2 67609  97.2832 108.0589 0001211  87.2070 225.9133 15.80753851  3350
STARLINK-36387          
1 67610U 26018X   26043.50002314  .00079880  00000+0  41474-3 0  9991
2 67610  97.2825 108.0610 0001435 105.8874 215.4057 15.80774331  3351
STARLINK-36636          
1 67611U 26018Y   26043.50002314  .00040099  00000+0  20944-3 0  9991
2 67611  97.2748 108.0632 0001439  77.4234 249.9632 15.80781798  3309
STARLINK-36407          
1 67612U 26018Z   26043.50002314  .00106013  00000+0  54875-3 0  9991
2 67612  97.2833 108.0678 0001265 104.9760 227.6173 15.80765966  3405
STARLINK-36597          
1 67613U 26018AA  26043.50002314  .00064202  00000+0  33436-3 0  9995
2 67613  97.2831 108.0694 0001471  77.3981 261.0306 15.80756018  3306
NEONSAT-1A              
1 67614U 26019A   26043.29376107  .00003438  00000+0  22958-3 0  9998
2 67614  97.4086 167.7864 0012022 260.0448  99.9424 15.07598620  1999
ELECTRON KICK STAGE R/B 
1 67616U 26019C   26043.25969957  .00423687  52018-4  20699-2 0  9999
2 67616  97.4045 168.7437 0183102 214.6498 144.2722 15.61739402  2059
STARLINK-36548          
1 67617U 26020A   26043.50002314 -.00016122  00000+0 -96165-4 0  9991
2 67617  42.9988 295.3748 0001640 265.2399 296.9963 15.76372721  3349
STARLINK-36601          
1 67618U 26020B   26043.13930214  .00314339  00000+0  14366-2 0  9990
2 67618  42.9977 297.4504 0002041 252.8009 107.2640 15.82092452  2057
STARLINK-36119          
1 67619U 26020C   26043.50002314 -.00021603  00000+0 -13013-3 0  9993
2 67619  42.9990 295.3435 0002169 256.3716 318.3197 15.76341968  3345
STARLINK-36607          
1 67620U 26020D   26043.13752851  .00270269  00000+0  12432-2 0  9997
2 67620  42.9984 297.4352 0002269 249.0875 110.9754 15.82070905  2056
